{
 "type": "FeatureCollection",
 "name": "GAFOR-Routen Oesterreich",
 "hinweis": "UNGEFAEHR: Linien aus der GAFOR-Karte von Austro Control (Sichtflug-Streckenvorhersage vom 03.10.2026) uebertragen - Karte ueber 45 Flugplaetze eingemessen (Abweichung ca. 1 Pixel = 0,3 NM), Linien entlang der gezeichneten Strecken nachgefuehrt. Genauigkeit ca. 1-3 NM. Streckennamen nach der Austro-Control-Streckenliste (Stand 2019), Bezugshoehen aus der Karte. Nur fuer Anzeige und 'bevorzugen bei gleicher Sicherheit', nie fuer Hoehen- oder Sicherheitsentscheidungen. Nicht gegen die AIP geprueft.",
 "quelle": "GAFOR-Karte Austro Control (03.10.2026), ungefaehr uebertragen",
 "stand": "Karte 03.10.2026, ungefähr",
 "genauigkeit": "ca. 1-3 NM",
 "geprueft": true,
 "features": [
  {
   "type": "Feature",
   "properties": {
    "nr": "10",
    "name": "Innsbruck – Fernpass – Reutte – Pfronten – Kempten",
    "bezugshoehe": 4700
   },
   "geometry": {
    "type": "LineString",
    "coordinates": [
     [
      11.3477,
      47.2612
     ],
     [
      11.3004,
      47.2693
     ],
     [
      11.2294,
      47.2694
     ],
     [
      11.1584,
      47.291
     ],
     [
      11.1189,
      47.3125
     ],
     [
      11.0795,
      47.3126
     ],
     [
      11.0716,
      47.3073
     ],
     [
      11.0006,
      47.3181
     ],
     [
      10.977,
      47.3074
     ],
     [
      10.8982,
      47.3076
     ],
     [
      10.8351,
      47.3184
     ],
     [
      10.8193,
      47.3345
     ],
     [
      10.8192,
      47.3613
     ],
     [
      10.8428,
      47.372
     ],
     [
      10.8665,
      47.3719
     ],
     [
      10.8979,
      47.3933
     ],
     [
      10.8505,
      47.4201
     ],
     [
      10.7875,
      47.4256
     ],
     [
      10.7559,
      47.4417
     ],
     [
      10.7164,
      47.4685
     ],
     [
      10.7242,
      47.4738
     ],
     [
      10.7161,
      47.5219
     ],
     [
      10.653,
      47.554
     ],
     [
      10.5899,
      47.5648
     ],
     [
      10.5345,
      47.6129
     ],
     [
      10.4872,
      47.629
     ],
     [
      10.3766,
      47.6877
     ],
     [
      10.3372,
      47.6984
     ],
     [
      10.3371,
      47.725
     ]
    ]
   }
  },
  {
   "type": "Feature",
   "properties": {
    "nr": "11",
    "name": "Innsbruck – Inntal – Landeck – Arlberg – Feldkirch – Hohenems",
    "bezugshoehe": 7000
   },
   "geometry": {
    "type": "LineString",
    "coordinates": [
     [
      11.3477,
      47.2612
     ],
     [
      11.3004,
      47.2693
     ],
     [
      11.2294,
      47.2694
     ],
     [
      11.1584,
      47.291
     ],
     [
      11.1189,
      47.3125
     ],
     [
      11.0795,
      47.3126
     ],
     [
      11.0401,
      47.3073
     ],
     [
      11.0244,
      47.2966
     ],
     [
      10.985,
      47.2913
     ],
     [
      10.9614,
      47.2806
     ],
     [
      10.8905,
      47.2701
     ],
     [
      10.804,
      47.2219
     ],
     [
      10.7015,
      47.2221
     ],
     [
      10.6229,
      47.1901
     ],
     [
      10.5757,
      47.1579
     ],
     [
      10.5679,
      47.1418
     ],
     [
      10.5285,
      47.1473
     ],
     [
      10.5049,
      47.1365
     ],
     [
      10.434,
      47.1367
     ],
     [
      10.4025,
      47.1529
     ],
     [
      10.3316,
      47.1531
     ],
     [
      10.2922,
      47.1478
     ],
     [
      10.2765,
      47.1371
     ],
     [
      10.2135,
      47.1372
     ],
     [
      10.1584,
      47.1481
     ],
     [
      10.1269,
      47.1374
     ],
     [
      9.9853,
      47.1324
     ],
     [
      9.8986,
      47.1541
     ],
     [
      9.8278,
      47.1489
     ],
     [
      9.7805,
      47.1813
     ],
     [
      9.749,
      47.1814
     ],
     [
      9.6544,
      47.2299
     ],
     [
      9.6072,
      47.2408
     ],
     [
      9.6306,
      47.2783
     ],
     [
      9.6304,
      47.3426
     ],
     [
      9.6774,
      47.38
     ],
     [
      9.7049,
      47.3906
     ]
    ]
   }
  },
  {
   "type": "Feature",
   "properties": {
    "nr": "12",
    "name": "Innsbruck – Inntal (A12) – Kufstein",
    "bezugshoehe": 2600
   },
   "geometry": {
    "type": "LineString",
    "coordinates": [
     [
      11.3477,
      47.2612
     ],
     [
      11.3871,
      47.2638
     ],
     [
      11.4108,
      47.2584
     ],
     [
      11.4423,
      47.2691
     ],
     [
      11.466,
      47.269
     ],
     [
      11.6551,
      47.3223
     ],
     [
      11.7102,
      47.3651
     ],
     [
      11.7654,
      47.3865
     ],
     [
      11.7969,
      47.4078
     ],
     [
      11.8363,
      47.4131
     ],
     [
      11.8757,
      47.4398
     ],
     [
      11.9467,
      47.4397
     ],
     [
      12.0255,
      47.4877
     ],
     [
      12.0413,
      47.4877
     ],
     [
      12.057,
      47.4983
     ],
     [
      12.0648,
      47.5197
     ],
     [
      12.1279,
      47.5623
     ]
    ]
   }
  },
  {
   "type": "Feature",
   "properties": {
    "nr": "13",
    "name": "Salzburg – Chiemsee – Inntaldreieck – Kufstein",
    "bezugshoehe": 2800
   },
   "geometry": {
    "type": "LineString",
    "coordinates": [
     [
      13.0,
      47.7956
     ],
     [
      12.9645,
      47.7797
     ],
     [
      12.9013,
      47.7691
     ],
     [
      12.8062,
      47.8276
     ],
     [
      12.7588,
      47.8276
     ],
     [
      12.7509,
      47.8329
     ],
     [
      12.5455,
      47.8278
     ],
     [
      12.498,
      47.8385
     ],
     [
      12.3874,
      47.8386
     ],
     [
      12.3401,
      47.8121
     ],
     [
      12.2612,
      47.8069
     ],
     [
      12.2533,
      47.8016
     ],
     [
      12.1822,
      47.8017
     ],
     [
      12.119,
      47.8124
     ],
     [
      12.1191,
      47.7911
     ],
     [
      12.0955,
      47.7699
     ],
     [
      12.1589,
      47.6954
     ],
     [
      12.1987,
      47.6262
     ],
     [
      12.1987,
      47.6155
     ],
     [
      12.1279,
      47.5623
     ]
    ]
   }
  },
  {
   "type": "Feature",
   "properties": {
    "nr": "14",
    "name": "Salzburg – A1 – Linz",
    "bezugshoehe": 2600
   },
   "geometry": {
    "type": "LineString",
    "coordinates": [
     [
      13.0,
      47.7956
     ],
     [
      12.996,
      47.8168
     ],
     [
      13.0039,
      47.8221
     ],
     [
      13.0355,
      47.8327
     ],
     [
      13.0592,
      47.8327
     ],
     [
      13.0907,
      47.8539
     ],
     [
      13.1144,
      47.8592
     ],
     [
      13.2252,
      47.8538
     ],
     [
      13.2885,
      47.8432
     ],
     [
      13.3122,
      47.8484
     ],
     [
      13.3358,
      47.8643
     ],
     [
      13.3755,
      47.8431
     ],
     [
      13.415,
      47.8378
     ],
     [
      13.4308,
      47.8484
     ],
     [
      13.4307,
      47.8961
     ],
     [
      13.4622,
      47.9173
     ],
     [
      13.486,
      47.9173
     ],
     [
      13.5254,
      47.9543
     ],
     [
      13.5649,
      47.9596
     ],
     [
      13.6123,
      47.9966
     ],
     [
      13.8101,
      48.0018
     ],
     [
      13.818,
      48.0071
     ],
     [
      13.913,
      48.0071
     ],
     [
      13.9288,
      48.0123
     ],
     [
      14.0078,
      48.0493
     ],
     [
      14.15,
      48.1548
     ],
     [
      14.1894,
      48.197
     ],
     [
      14.1892,
      48.2391
     ]
    ]
   }
  },
  {
   "type": "Feature",
   "properties": {
    "nr": "15",
    "name": "Linz – A1 – St. Pölten – S33 – Krems",
    "bezugshoehe": 1500
   },
   "geometry": {
    "type": "LineString",
    "coordinates": [
     [
      14.1892,
      48.2391
     ],
     [
      14.2526,
      48.2391
     ],
     [
      14.2842,
      48.2496
     ],
     [
      14.3238,
      48.2496
     ],
     [
      14.3794,
      48.2338
     ],
     [
      14.4349,
      48.2075
     ],
     [
      14.5142,
      48.197
     ],
     [
      14.5857,
      48.1338
     ],
     [
      14.6254,
      48.1179
     ],
     [
      14.673,
      48.1179
     ],
     [
      14.6809,
      48.1127
     ],
     [
      14.7047,
      48.1127
     ],
     [
      14.7205,
      48.1232
     ],
     [
      14.7522,
      48.1285
     ],
     [
      15.0534,
      48.1339
     ],
     [
      15.1088,
      48.1603
     ],
     [
      15.1643,
      48.1656
     ],
     [
      15.196,
      48.1919
     ],
     [
      15.2435,
      48.1972
     ],
     [
      15.291,
      48.2183
     ],
     [
      15.3466,
      48.2183
     ],
     [
      15.3704,
      48.1973
     ],
     [
      15.4101,
      48.1868
     ],
     [
      15.4419,
      48.1868
     ],
     [
      15.4816,
      48.171
     ],
     [
      15.6006,
      48.1816
     ],
     [
      15.6165,
      48.1658
     ],
     [
      15.6244,
      48.1764
     ],
     [
      15.6403,
      48.1764
     ],
     [
      15.6561,
      48.1869
     ],
     [
      15.6561,
      48.2027
     ],
     [
      15.6798,
      48.2291
     ],
     [
      15.6797,
      48.2501
     ],
     [
      15.6955,
      48.2607
     ],
     [
      15.7033,
      48.3027
     ],
     [
      15.7191,
      48.3238
     ],
     [
      15.719,
      48.3658
     ],
     [
      15.6951,
      48.3815
     ],
     [
      15.6634,
      48.3815
     ],
     [
      15.6236,
      48.4129
     ],
     [
      15.6235,
      48.4391
     ],
     [
      15.6393,
      48.4444
     ]
    ]
   }
  },
  {
   "type": "Feature",
   "properties": {
    "nr": "16",
    "name": "Wien – Donau – Stockerau – S5 – Krems",
    "bezugshoehe": 1400
   },
   "geometry": {
    "type": "LineString",
    "coordinates": [
     [
      16.5774,
      48.1139
     ],
     [
      16.5695,
      48.1139
     ],
     [
      16.5694,
      48.1298
     ],
     [
      16.3943,
      48.2508
     ],
     [
      16.2986,
      48.3715
     ],
     [
      16.235,
      48.382
     ],
     [
      16.0921,
      48.3818
     ],
     [
      16.0683,
      48.3661
     ],
     [
      15.9651,
      48.3607
     ],
     [
      15.9015,
      48.4026
     ],
     [
      15.8697,
      48.4131
     ],
     [
      15.7982,
      48.413
     ],
     [
      15.7903,
      48.4078
     ],
     [
      15.6871,
      48.413
     ],
     [
      15.6395,
      48.4024
     ],
     [
      15.6236,
      48.4129
     ],
     [
      15.6235,
      48.4391
     ],
     [
      15.6393,
      48.4444
     ]
    ]
   }
  },
  {
   "type": "Feature",
   "properties": {
    "nr": "17",
    "name": "Linz – Wels – A8/A3 – Donau – Vilshofen",
    "bezugshoehe": 1800
   },
   "geometry": {
    "type": "LineString",
    "coordinates": [
     [
      14.1892,
      48.2391
     ],
     [
      14.1417,
      48.2285
     ],
     [
      14.0706,
      48.1917
     ],
     [
      14.031,
      48.1917
     ],
     [
      13.9915,
      48.1812
     ],
     [
      13.9281,
      48.1917
     ],
     [
      13.8885,
      48.1812
     ],
     [
      13.7461,
      48.1812
     ],
     [
      13.7457,
      48.2602
     ],
     [
      13.7298,
      48.2707
     ],
     [
      13.532,
      48.2707
     ],
     [
      13.5003,
      48.276
     ],
     [
      13.4685,
      48.3023
     ],
     [
      13.421,
      48.3128
     ],
     [
      13.3971,
      48.3391
     ],
     [
      13.4206,
      48.4072
     ],
     [
      13.3729,
      48.4334
     ],
     [
      13.3647,
      48.491
     ],
     [
      13.3883,
      48.5171
     ],
     [
      13.3881,
      48.5537
     ],
     [
      13.3723,
      48.5642
     ],
     [
      13.3563,
      48.5955
     ],
     [
      13.2929,
      48.6112
     ],
     [
      13.2375,
      48.6112
     ],
     [
      13.182,
      48.6321
     ]
    ]
   }
  },
  {
   "type": "Feature",
   "properties": {
    "nr": "18",
    "name": "Linz – S10 – Freistadt",
    "bezugshoehe": 2500
   },
   "geometry": {
    "type": "LineString",
    "coordinates": [
     [
      14.1892,
      48.2391
     ],
     [
      14.2209,
      48.2391
     ],
     [
      14.292,
      48.2759
     ],
     [
      14.2919,
      48.3127
     ],
     [
      14.3077,
      48.3284
     ],
     [
      14.3472,
      48.3389
     ],
     [
      14.4344,
      48.3389
     ],
     [
      14.4739,
      48.3704
     ],
     [
      14.4736,
      48.4386
     ],
     [
      14.4894,
      48.449
     ],
     [
      14.4972,
      48.47
     ],
     [
      14.4892,
      48.4909
     ],
     [
      14.4415,
      48.5118
     ],
     [
      14.4059,
      48.5145
     ]
    ]
   }
  },
  {
   "type": "Feature",
   "properties": {
    "nr": "19",
    "name": "Freistadt – Kaplice – Budweis",
    "bezugshoehe": 2600
   },
   "geometry": {
    "type": "LineString",
    "coordinates": [
     [
      14.4059,
      48.5145
     ],
     [
      14.4336,
      48.5171
     ],
     [
      14.4652,
      48.538
     ],
     [
      14.4651,
      48.5641
     ],
     [
      14.473,
      48.5693
     ],
     [
      14.4648,
      48.6268
     ],
     [
      14.4329,
      48.658
     ],
     [
      14.48,
      48.7414
     ],
     [
      14.4481,
      48.7882
     ],
     [
      14.4476,
      48.8713
     ],
     [
      14.4317,
      48.8868
     ],
     [
      14.4315,
      48.9231
     ],
     [
      14.4393,
      48.9387
     ],
     [
      14.463,
      48.949
     ]
    ]
   }
  },
  {
   "type": "Feature",
   "properties": {
    "nr": "20",
    "name": "Innsbruck – Zillertal – Gerlospass – Salzachtal – Zell am See",
    "bezugshoehe": 5700
   },
   "geometry": {
    "type": "LineString",
    "coordinates": [
     [
      11.3477,
      47.2612
     ],
     [
      11.3871,
      47.2638
     ],
     [
      11.4108,
      47.2584
     ],
     [
      11.6078,
      47.3063
     ],
     [
      11.6551,
      47.3223
     ],
     [
      11.7102,
      47.3651
     ],
     [
      11.7969,
      47.4025
     ],
     [
      11.8127,
      47.4024
     ],
     [
      11.8443,
      47.3756
     ],
     [
      11.8682,
      47.2952
     ],
     [
      11.8999,
      47.2576
     ],
     [
      11.8921,
      47.2254
     ],
     [
      11.9158,
      47.2146
     ],
     [
      11.9869,
      47.2091
     ],
     [
      12.0342,
      47.2252
     ],
     [
      12.2236,
      47.2196
     ],
     [
      12.3103,
      47.2785
     ],
     [
      12.3814,
      47.2784
     ],
     [
      12.3893,
      47.2838
     ],
     [
      12.4762,
      47.2837
     ],
     [
      12.4841,
      47.2783
     ],
     [
      12.5156,
      47.289
     ],
     [
      12.7289,
      47.2834
     ],
     [
      12.7882,
      47.2914
     ]
    ]
   }
  },
  {
   "type": "Feature",
   "properties": {
    "nr": "21",
    "name": "Zell am See – Salzachtal – Wagrain – Ennstal – Aigen",
    "bezugshoehe": 4200
   },
   "geometry": {
    "type": "LineString",
    "coordinates": [
     [
      12.7882,
      47.2914
     ],
     [
      12.9264,
      47.2886
     ],
     [
      12.9343,
      47.2939
     ],
     [
      12.9738,
      47.2939
     ],
     [
      13.0054,
      47.31
     ],
     [
      13.045,
      47.2992
     ],
     [
      13.0924,
      47.2992
     ],
     [
      13.124,
      47.3152
     ],
     [
      13.1714,
      47.3259
     ],
     [
      13.1951,
      47.342
     ],
     [
      13.2109,
      47.342
     ],
     [
      13.2267,
      47.3312
     ],
     [
      13.2899,
      47.3366
     ],
     [
      13.3215,
      47.358
     ],
     [
      13.369,
      47.3633
     ],
     [
      13.4005,
      47.3847
     ],
     [
      13.4717,
      47.3847
     ],
     [
      13.5666,
      47.406
     ],
     [
      13.5983,
      47.3899
     ],
     [
      13.6615,
      47.3899
     ],
     [
      13.7169,
      47.4059
     ],
     [
      13.8039,
      47.4059
     ],
     [
      13.8671,
      47.4487
     ],
     [
      13.9621,
      47.4486
     ],
     [
      14.0727,
      47.5181
     ],
     [
      14.1044,
      47.5234
     ],
     [
      14.136,
      47.5395
     ],
     [
      14.136,
      47.5341
     ]
    ]
   }
  },
  {
   "type": "Feature",
   "properties": {
    "nr": "23",
    "name": "Aigen – Selzthal – Schoberpass – Leoben – Kapfenberg",
    "bezugshoehe": 3800
   },
   "geometry": {
    "type": "LineString",
    "coordinates": [
     [
      14.136,
      47.5341
     ],
     [
      14.136,
      47.5395
     ],
     [
      14.2072,
      47.5661
     ],
     [
      14.2389,
      47.5661
     ],
     [
      14.3023,
      47.5501
     ],
     [
      14.3419,
      47.5234
     ],
     [
      14.4766,
      47.5073
     ],
     [
      14.5321,
      47.486
     ],
     [
      14.5796,
      47.4806
     ],
     [
      14.651,
      47.4325
     ],
     [
      14.7461,
      47.4325
     ],
     [
      14.8016,
      47.4003
     ],
     [
      14.8808,
      47.395
     ],
     [
      14.9839,
      47.3736
     ],
     [
      15.0156,
      47.336
     ],
     [
      15.0473,
      47.3414
     ],
     [
      15.0631,
      47.3521
     ],
     [
      15.0869,
      47.3521
     ],
     [
      15.1028,
      47.3629
     ],
     [
      15.1027,
      47.3789
     ],
     [
      15.1582,
      47.395
     ],
     [
      15.1978,
      47.4057
     ],
     [
      15.2454,
      47.4004
     ],
     [
      15.3008,
      47.4486
     ],
     [
      15.3246,
      47.4593
     ],
     [
      15.3365,
      47.4566
     ]
    ]
   }
  },
  {
   "type": "Feature",
   "properties": {
    "nr": "24",
    "name": "Wiener Neustadt – Semmering – Mürztal – Kapfenberg",
    "bezugshoehe": 3800
   },
   "geometry": {
    "type": "LineString",
    "coordinates": [
     [
      16.2563,
      47.8357
     ],
     [
      16.2444,
      47.8277
     ],
     [
      16.2444,
      47.8117
     ],
     [
      16.2048,
      47.7798
     ],
     [
      16.2048,
      47.7639
     ],
     [
      16.1255,
      47.7159
     ],
     [
      16.0779,
      47.6999
     ],
     [
      15.9906,
      47.6839
     ],
     [
      15.9351,
      47.6625
     ],
     [
      15.8875,
      47.6572
     ],
     [
      15.7844,
      47.5878
     ],
     [
      15.6654,
      47.5877
     ],
     [
      15.6417,
      47.5717
     ],
     [
      15.4435,
      47.5075
     ],
     [
      15.388,
      47.4754
     ],
     [
      15.3404,
      47.4647
     ],
     [
      15.3365,
      47.4566
     ]
    ]
   }
  },
  {
   "type": "Feature",
   "properties": {
    "nr": "25",
    "name": "Wien – Pottendorf – Wiener Neustadt",
    "bezugshoehe": 900
   },
   "geometry": {
    "type": "LineString",
    "coordinates": [
     [
      16.5774,
      48.1139
     ],
     [
      16.5695,
      48.1139
     ],
     [
      16.5616,
      48.0822
     ],
     [
      16.5378,
      48.0663
     ],
     [
      16.5379,
      48.0346
     ],
     [
      16.4506,
      47.9763
     ],
     [
      16.411,
      47.9127
     ],
     [
      16.3476,
      47.8702
     ],
     [
      16.3,
      47.849
     ],
     [
      16.2682,
      47.8489
     ],
     [
      16.2563,
      47.8357
     ]
    ]
   }
  },
  {
   "type": "Feature",
   "properties": {
    "nr": "26",
    "name": "Wien – S2/A5 – Mikulov – Brünn",
    "bezugshoehe": 1400
   },
   "geometry": {
    "type": "LineString",
    "coordinates": [
     [
      16.5774,
      48.1139
     ],
     [
      16.5695,
      48.1139
     ],
     [
      16.5694,
      48.1298
     ],
     [
      16.45,
      48.2087
     ],
     [
      16.45,
      48.2245
     ],
     [
      16.4737,
      48.2614
     ],
     [
      16.5134,
      48.293
     ],
     [
      16.5133,
      48.3298
     ],
     [
      16.4894,
      48.3508
     ],
     [
      16.4972,
      48.3823
     ],
     [
      16.5527,
      48.4295
     ],
     [
      16.5605,
      48.4767
     ],
     [
      16.6239,
      48.5239
     ],
     [
      16.6316,
      48.5971
     ],
     [
      16.6713,
      48.6128
     ],
     [
      16.6871,
      48.6389
     ],
     [
      16.6868,
      48.7015
     ],
     [
      16.655,
      48.7223
     ],
     [
      16.6628,
      48.7432
     ],
     [
      16.6469,
      48.7536
     ],
     [
      16.6388,
      48.7952
     ],
     [
      16.6148,
      48.8263
     ],
     [
      16.6066,
      48.8783
     ],
     [
      16.5906,
      48.899
     ],
     [
      16.5348,
      48.9352
     ],
     [
      16.5188,
      48.956
     ],
     [
      16.5188,
      48.9715
     ],
     [
      16.5504,
      48.9974
     ],
     [
      16.5423,
      49.044
     ],
     [
      16.6928,
      49.1527
     ]
    ]
   }
  },
  {
   "type": "Feature",
   "properties": {
    "nr": "30",
    "name": "Mauterndorf – Tamsweg – Murtal – Leoben – Kapfenberg",
    "bezugshoehe": 5000
   },
   "geometry": {
    "type": "LineString",
    "coordinates": [
     [
      13.6976,
      47.1321
     ],
     [
      13.7016,
      47.1375
     ],
     [
      13.7886,
      47.1374
     ],
     [
      13.8044,
      47.1267
     ],
     [
      13.8203,
      47.0782
     ],
     [
      13.9074,
      47.0673
     ],
     [
      13.9311,
      47.0835
     ],
     [
      13.9865,
      47.0889
     ],
     [
      14.0181,
      47.1104
     ],
     [
      14.1289,
      47.105
     ],
     [
      14.1526,
      47.1157
     ],
     [
      14.2001,
      47.1103
     ],
     [
      14.2476,
      47.1372
     ],
     [
      14.3505,
      47.1318
     ],
     [
      14.398,
      47.148
     ],
     [
      14.4217,
      47.1695
     ],
     [
      14.5009,
      47.1695
     ],
     [
      14.5246,
      47.1856
     ],
     [
      14.5801,
      47.1856
     ],
     [
      14.588,
      47.191
     ],
     [
      14.6276,
      47.1749
     ],
     [
      14.6593,
      47.1748
     ],
     [
      14.691,
      47.1856
     ],
     [
      14.7305,
      47.2125
     ],
     [
      14.7385,
      47.2071
     ],
     [
      14.7464,
      47.2125
     ],
     [
      14.786,
      47.2125
     ],
     [
      14.8889,
      47.2555
     ],
     [
      15.0156,
      47.336
     ],
     [
      15.0473,
      47.3414
     ],
     [
      15.0631,
      47.3521
     ],
     [
      15.0869,
      47.3521
     ],
     [
      15.1028,
      47.3629
     ],
     [
      15.1027,
      47.3789
     ],
     [
      15.1978,
      47.4057
     ],
     [
      15.2454,
      47.4004
     ],
     [
      15.3008,
      47.4486
     ],
     [
      15.3246,
      47.4593
     ],
     [
      15.3365,
      47.4566
     ]
    ]
   }
  },
  {
   "type": "Feature",
   "properties": {
    "nr": "40",
    "name": "Zell am See – Mittersill – Felbertauern – Matrei – Lienz",
    "bezugshoehe": 9300
   },
   "geometry": {
    "type": "LineString",
    "coordinates": [
     [
      12.7882,
      47.2914
     ],
     [
      12.7526,
      47.2941
     ],
     [
      12.7289,
      47.2834
     ],
     [
      12.5472,
      47.2836
     ],
     [
      12.5077,
      47.289
     ],
     [
      12.4841,
      47.2783
     ],
     [
      12.4921,
      47.2246
     ],
     [
      12.5317,
      47.1762
     ],
     [
      12.5318,
      47.1439
     ],
     [
      12.5002,
      47.117
     ],
     [
      12.524,
      47.0901
     ],
     [
      12.5162,
      47.02
     ],
     [
      12.54,
      46.9984
     ],
     [
      12.5638,
      46.9443
     ],
     [
      12.714,
      46.8468
     ],
     [
      12.7693,
      46.8305
     ],
     [
      12.8009,
      46.8304
     ],
     [
      12.876,
      46.7978
     ]
    ]
   }
  },
  {
   "type": "Feature",
   "properties": {
    "nr": "41",
    "name": "Klagenfurt – A2/A10 – Spittal – Drautal – Lienz",
    "bezugshoehe": 4300
   },
   "geometry": {
    "type": "LineString",
    "coordinates": [
     [
      14.335,
      46.642
     ],
     [
      14.2558,
      46.6502
     ],
     [
      14.2321,
      46.6339
     ],
     [
      14.2004,
      46.6284
     ],
     [
      14.1134,
      46.6394
     ],
     [
      14.058,
      46.6231
     ],
     [
      13.9077,
      46.6232
     ],
     [
      13.8998,
      46.6177
     ],
     [
      13.8681,
      46.6286
     ],
     [
      13.8286,
      46.6287
     ],
     [
      13.8128,
      46.6395
     ],
     [
      13.6783,
      46.6777
     ],
     [
      13.5122,
      46.7918
     ],
     [
      13.4252,
      46.8298
     ],
     [
      13.3619,
      46.8299
     ],
     [
      13.3462,
      46.7865
     ],
     [
      13.3067,
      46.7595
     ],
     [
      13.1723,
      46.7542
     ],
     [
      13.0775,
      46.738
     ],
     [
      12.9669,
      46.7489
     ],
     [
      12.9115,
      46.7707
     ],
     [
      12.876,
      46.7978
     ]
    ]
   }
  },
  {
   "type": "Feature",
   "properties": {
    "nr": "42",
    "name": "Klagenfurt – A2/A10 – Katschberg – Mauterndorf",
    "bezugshoehe": 5900
   },
   "geometry": {
    "type": "LineString",
    "coordinates": [
     [
      14.335,
      46.642
     ],
     [
      14.2558,
      46.6502
     ],
     [
      14.2321,
      46.6339
     ],
     [
      14.2004,
      46.6284
     ],
     [
      14.1134,
      46.6394
     ],
     [
      14.058,
      46.6231
     ],
     [
      13.9077,
      46.6232
     ],
     [
      13.8998,
      46.6177
     ],
     [
      13.8681,
      46.6286
     ],
     [
      13.8286,
      46.6287
     ],
     [
      13.8128,
      46.6395
     ],
     [
      13.6783,
      46.6777
     ],
     [
      13.5913,
      46.7429
     ],
     [
      13.4964,
      46.7973
     ],
     [
      13.4884,
      46.8406
     ],
     [
      13.5042,
      46.8785
     ],
     [
      13.5358,
      46.9055
     ],
     [
      13.5674,
      46.9163
     ],
     [
      13.6069,
      46.9433
     ],
     [
      13.6148,
      46.9596
     ],
     [
      13.6227,
      46.9866
     ],
     [
      13.6068,
      47.0244
     ],
     [
      13.6147,
      47.0783
     ],
     [
      13.6463,
      47.0944
     ],
     [
      13.6858,
      47.0944
     ],
     [
      13.6937,
      47.0998
     ],
     [
      13.6858,
      47.1267
     ],
     [
      13.6976,
      47.1321
     ]
    ]
   }
  },
  {
   "type": "Feature",
   "properties": {
    "nr": "43",
    "name": "Klagenfurt – A2 – Griffener Berg – Wolfsberg",
    "bezugshoehe": 2500
   },
   "geometry": {
    "type": "LineString",
    "coordinates": [
     [
      14.335,
      46.642
     ],
     [
      14.43,
      46.6447
     ],
     [
      14.4379,
      46.6392
     ],
     [
      14.4774,
      46.6392
     ],
     [
      14.5249,
      46.6555
     ],
     [
      14.5566,
      46.6555
     ],
     [
      14.5883,
      46.6772
     ],
     [
      14.6833,
      46.6827
     ],
     [
      14.7229,
      46.699
     ],
     [
      14.7546,
      46.6881
     ],
     [
      14.7783,
      46.7098
     ],
     [
      14.7783,
      46.7315
     ],
     [
      14.8179,
      46.7587
     ],
     [
      14.81,
      46.7641
     ],
     [
      14.81,
      46.7912
     ],
     [
      14.8219,
      46.8183
     ]
    ]
   }
  },
  {
   "type": "Feature",
   "properties": {
    "nr": "44",
    "name": "Graz – A2 – Packsattel – Wolfsberg",
    "bezugshoehe": 4100
   },
   "geometry": {
    "type": "LineString",
    "coordinates": [
     [
      15.44,
      46.9916
     ],
     [
      15.4439,
      46.97
     ],
     [
      15.436,
      46.9646
     ],
     [
      15.3647,
      46.9537
     ],
     [
      15.3092,
      46.9807
     ],
     [
      15.2695,
      46.9753
     ],
     [
      15.2378,
      46.9807
     ],
     [
      15.1506,
      47.0401
     ],
     [
      15.0397,
      47.0401
     ],
     [
      15.0001,
      47.0131
     ],
     [
      14.9446,
      46.9915
     ],
     [
      14.8417,
      46.9267
     ],
     [
      14.8179,
      46.8942
     ],
     [
      14.8338,
      46.8725
     ],
     [
      14.8219,
      46.8183
     ]
    ]
   }
  },
  {
   "type": "Feature",
   "properties": {
    "nr": "45",
    "name": "Graz – A2 – Pinkafeld",
    "bezugshoehe": 1900
   },
   "geometry": {
    "type": "LineString",
    "coordinates": [
     [
      15.44,
      46.9916
     ],
     [
      15.436,
      47.0024
     ],
     [
      15.4439,
      47.0078
     ],
     [
      15.4994,
      47.024
     ],
     [
      15.5549,
      47.0618
     ],
     [
      15.6104,
      47.0618
     ],
     [
      15.6976,
      47.0996
     ],
     [
      15.7452,
      47.0942
     ],
     [
      15.7611,
      47.105
     ],
     [
      15.7849,
      47.105
     ],
     [
      15.8484,
      47.0889
     ],
     [
      15.9515,
      47.0781
     ],
     [
      15.9832,
      47.0997
     ],
     [
      15.9832,
      47.1321
     ],
     [
      16.007,
      47.159
     ],
     [
      15.9911,
      47.1967
     ],
     [
      15.9911,
      47.2612
     ],
     [
      15.9673,
      47.2773
     ],
     [
      16.0783,
      47.3525
     ],
     [
      16.0942,
      47.3794
     ],
     [
      16.11,
      47.3874
     ]
    ]
   }
  },
  {
   "type": "Feature",
   "properties": {
    "nr": "46",
    "name": "Wiener Neustadt – A2 – Wechsel – Pinkafeld",
    "bezugshoehe": 2800
   },
   "geometry": {
    "type": "LineString",
    "coordinates": [
     [
      16.2563,
      47.8357
     ],
     [
      16.2444,
      47.8277
     ],
     [
      16.2444,
      47.8117
     ],
     [
      16.2048,
      47.7798
     ],
     [
      16.2048,
      47.7639
     ],
     [
      16.1335,
      47.7159
     ],
     [
      16.1255,
      47.6946
     ],
     [
      16.1336,
      47.604
     ],
     [
      16.1098,
      47.5827
     ],
     [
      16.1337,
      47.5506
     ],
     [
      16.1099,
      47.5346
     ],
     [
      16.102,
      47.5185
     ],
     [
      16.1099,
      47.5132
     ],
     [
      16.102,
      47.4972
     ],
     [
      16.1021,
      47.4062
     ],
     [
      16.11,
      47.3874
     ]
    ]
   }
  },
  {
   "type": "Feature",
   "properties": {
    "nr": "47",
    "name": "Graz – A2 – Fürstenfeld – Punitz",
    "bezugshoehe": 1900
   },
   "geometry": {
    "type": "LineString",
    "coordinates": [
     [
      15.44,
      46.9916
     ],
     [
      15.436,
      47.0024
     ],
     [
      15.4439,
      47.0078
     ],
     [
      15.4994,
      47.024
     ],
     [
      15.5549,
      47.0618
     ],
     [
      15.6104,
      47.0618
     ],
     [
      15.6976,
      47.0996
     ],
     [
      15.7452,
      47.0942
     ],
     [
      15.7611,
      47.105
     ],
     [
      15.7849,
      47.105
     ],
     [
      15.8484,
      47.0889
     ],
     [
      15.9832,
      47.0782
     ],
     [
      16.0467,
      47.062
     ],
     [
      16.1737,
      47.0621
     ],
     [
      16.2927,
      47.1377
     ],
     [
      16.3205,
      47.1458
     ]
    ]
   }
  },
  {
   "type": "Feature",
   "properties": {
    "nr": "48",
    "name": "Punitz – Oberwart – Pinkafeld",
    "bezugshoehe": 1600
   },
   "geometry": {
    "type": "LineString",
    "coordinates": [
     [
      16.3205,
      47.1458
     ],
     [
      16.3562,
      47.17
     ],
     [
      16.3245,
      47.2346
     ],
     [
      16.2689,
      47.256
     ],
     [
      16.2054,
      47.2936
     ],
     [
      16.11,
      47.3874
     ]
    ]
   }
  },
  {
   "type": "Feature",
   "properties": {
    "nr": "49",
    "name": "Innsbruck – Landeck – Finstermünz – Scuol – Samedan",
    "bezugshoehe": 6700
   },
   "geometry": {
    "type": "LineString",
    "coordinates": [
     [
      11.3477,
      47.2612
     ],
     [
      11.3004,
      47.2693
     ],
     [
      11.2294,
      47.2694
     ],
     [
      11.1584,
      47.291
     ],
     [
      11.1189,
      47.3125
     ],
     [
      11.0795,
      47.3126
     ],
     [
      11.0401,
      47.3073
     ],
     [
      11.0244,
      47.2966
     ],
     [
      10.985,
      47.2913
     ],
     [
      10.9614,
      47.2806
     ],
     [
      10.8905,
      47.2701
     ],
     [
      10.804,
      47.2219
     ],
     [
      10.7015,
      47.2221
     ],
     [
      10.6543,
      47.2061
     ],
     [
      10.5757,
      47.1579
     ],
     [
      10.5679,
      47.1418
     ],
     [
      10.5837,
      47.131
     ],
     [
      10.6467,
      47.1201
     ],
     [
      10.6625,
      47.1093
     ],
     [
      10.6626,
      47.0716
     ],
     [
      10.6155,
      47.0232
     ],
     [
      10.4897,
      46.9425
     ],
     [
      10.4741,
      46.8939
     ],
     [
      10.4034,
      46.84
     ],
     [
      10.3877,
      46.84
     ],
     [
      10.2854,
      46.797
     ],
     [
      10.2382,
      46.7917
     ],
     [
      10.2146,
      46.7809
     ],
     [
      10.1123,
      46.7757
     ],
     [
      10.0809,
      46.7541
     ],
     [
      10.0888,
      46.7432
     ],
     [
      10.081,
      46.7053
     ],
     [
      10.026,
      46.6674
     ],
     [
      10.0261,
      46.6457
     ],
     [
      9.924,
      46.5807
     ],
     [
      9.9004,
      46.559
     ],
     [
      9.8887,
      46.5318
     ]
    ]
   }
  },
  {
   "type": "Feature",
   "properties": {
    "nr": "50",
    "name": "Innsbruck – A13 – Brenner – A22 – Bozen",
    "bezugshoehe": 6400
   },
   "geometry": {
    "type": "LineString",
    "coordinates": [
     [
      11.3477,
      47.2612
     ],
     [
      11.3793,
      47.2638
     ],
     [
      11.3951,
      47.253
     ],
     [
      11.3872,
      47.2423
     ],
     [
      11.3952,
      47.2047
     ],
     [
      11.4268,
      47.1778
     ],
     [
      11.4269,
      47.1616
     ],
     [
      11.4506,
      47.1455
     ],
     [
      11.4508,
      47.0701
     ],
     [
      11.5061,
      47.0215
     ],
     [
      11.4983,
      46.9891
     ],
     [
      11.4511,
      46.9514
     ],
     [
      11.4433,
      46.919
     ],
     [
      11.4275,
      46.9082
     ],
     [
      11.4355,
      46.892
     ],
     [
      11.4907,
      46.8702
     ],
     [
      11.5302,
      46.8431
     ],
     [
      11.546,
      46.816
     ],
     [
      11.5933,
      46.8051
     ],
     [
      11.6407,
      46.7725
     ],
     [
      11.6487,
      46.7019
     ],
     [
      11.6251,
      46.6857
     ],
     [
      11.6172,
      46.6694
     ],
     [
      11.5385,
      46.6206
     ],
     [
      11.5149,
      46.5499
     ],
     [
      11.4913,
      46.5282
     ],
     [
      11.4361,
      46.4956
     ],
     [
      11.3494,
      46.4958
     ],
     [
      11.3337,
      46.4849
     ],
     [
      11.3298,
      46.4603
     ]
    ]
   }
  },
  {
   "type": "Feature",
   "properties": {
    "nr": "51",
    "name": "Lienz – Pustertal – Bruneck – Brixen – Bozen",
    "bezugshoehe": 4900
   },
   "geometry": {
    "type": "LineString",
    "coordinates": [
     [
      12.876,
      46.7978
     ],
     [
      12.8325,
      46.8196
     ],
     [
      12.7693,
      46.8305
     ],
     [
      12.714,
      46.7926
     ],
     [
      12.5956,
      46.7765
     ],
     [
      12.5482,
      46.7603
     ],
     [
      12.5167,
      46.7603
     ],
     [
      12.4851,
      46.7495
     ],
     [
      12.4456,
      46.7496
     ],
     [
      12.4377,
      46.755
     ],
     [
      12.3272,
      46.7497
     ],
     [
      12.2957,
      46.7281
     ],
     [
      12.1378,
      46.7283
     ],
     [
      12.0825,
      46.7663
     ],
     [
      12.0509,
      46.7664
     ],
     [
      11.9957,
      46.7936
     ],
     [
      11.8852,
      46.7883
     ],
     [
      11.83,
      46.8101
     ],
     [
      11.6958,
      46.8212
     ],
     [
      11.6643,
      46.7941
     ],
     [
      11.6723,
      46.7833
     ],
     [
      11.6407,
      46.7616
     ],
     [
      11.6487,
      46.7019
     ],
     [
      11.6251,
      46.6857
     ],
     [
      11.6172,
      46.6694
     ],
     [
      11.5385,
      46.6206
     ],
     [
      11.5149,
      46.5499
     ],
     [
      11.4361,
      46.4956
     ],
     [
      11.3494,
      46.4958
     ],
     [
      11.3337,
      46.4849
     ],
     [
      11.3298,
      46.4603
     ]
    ]
   }
  },
  {
   "type": "Feature",
   "properties": {
    "nr": "52",
    "name": "Hohenems – Feldkirch – Schaan – Bad Ragaz",
    "bezugshoehe": 2800
   },
   "geometry": {
    "type": "LineString",
    "coordinates": [
     [
      9.7049,
      47.3906
     ],
     [
      9.646,
      47.3586
     ],
     [
      9.6304,
      47.3372
     ],
     [
      9.6307,
      47.2729
     ],
     [
      9.6072,
      47.2408
     ],
     [
      9.5993,
      47.2462
     ],
     [
      9.4895,
      47.1713
     ],
     [
      9.5055,
      47.096
     ],
     [
      9.4585,
      47.0584
     ],
     [
      9.4585,
      47.0476
     ],
     [
      9.4743,
      47.0368
     ],
     [
      9.4744,
      47.0071
     ]
    ]
   }
  },
  {
   "type": "Feature",
   "properties": {
    "nr": "54",
    "name": "Lienz – Gailbergsattel – Gailtal – Nötsch",
    "bezugshoehe": 4300
   },
   "geometry": {
    "type": "LineString",
    "coordinates": [
     [
      12.876,
      46.7978
     ],
     [
      12.9036,
      46.7761
     ],
     [
      12.9669,
      46.7489
     ],
     [
      12.9669,
      46.7055
     ],
     [
      13.046,
      46.662
     ],
     [
      13.1329,
      46.6619
     ],
     [
      13.1645,
      46.6401
     ],
     [
      13.2831,
      46.6237
     ],
     [
      13.3384,
      46.6236
     ],
     [
      13.3463,
      46.6182
     ],
     [
      13.3779,
      46.629
     ],
     [
      13.4569,
      46.6344
     ],
     [
      13.5439,
      46.6125
     ],
     [
      13.5597,
      46.6016
     ],
     [
      13.5914,
      46.5962
     ],
     [
      13.6151,
      46.5798
     ],
     [
      13.627,
      46.5825
     ]
    ]
   }
  },
  {
   "type": "Feature",
   "properties": {
    "nr": "55",
    "name": "Zell am See – Saalfelden – Grießenpass – St. Johann – Kufstein",
    "bezugshoehe": 4200
   },
   "geometry": {
    "type": "LineString",
    "coordinates": [
     [
      12.7882,
      47.2914
     ],
     [
      12.7919,
      47.3691
     ],
     [
      12.8076,
      47.4119
     ],
     [
      12.8391,
      47.4333
     ],
     [
      12.8391,
      47.4654
     ],
     [
      12.8153,
      47.4922
     ],
     [
      12.7836,
      47.5029
     ],
     [
      12.6651,
      47.503
     ],
     [
      12.6336,
      47.4816
     ],
     [
      12.5625,
      47.4817
     ],
     [
      12.5467,
      47.4764
     ],
     [
      12.5229,
      47.4924
     ],
     [
      12.4518,
      47.5192
     ],
     [
      12.4044,
      47.5193
     ],
     [
      12.3965,
      47.5246
     ],
     [
      12.1991,
      47.5195
     ],
     [
      12.1753,
      47.5356
     ],
     [
      12.1753,
      47.5462
     ],
     [
      12.1515,
      47.5623
     ],
     [
      12.1436,
      47.5783
     ],
     [
      12.1279,
      47.5623
     ]
    ]
   }
  },
  {
   "type": "Feature",
   "properties": {
    "nr": "56",
    "name": "Salzburg – Steinpass – Lofer – Saalfelden – Zell am See",
    "bezugshoehe": 4200
   },
   "geometry": {
    "type": "LineString",
    "coordinates": [
     [
      13.0,
      47.7956
     ],
     [
      12.9645,
      47.7797
     ],
     [
      12.9408,
      47.7797
     ],
     [
      12.7042,
      47.6203
     ],
     [
      12.6885,
      47.5937
     ],
     [
      12.6886,
      47.5777
     ],
     [
      12.7203,
      47.5563
     ],
     [
      12.7203,
      47.5403
     ],
     [
      12.7757,
      47.5029
     ],
     [
      12.8232,
      47.4868
     ],
     [
      12.8233,
      47.4494
     ],
     [
      12.8391,
      47.4387
     ],
     [
      12.8234,
      47.4066
     ],
     [
      12.7998,
      47.3852
     ],
     [
      12.7882,
      47.2914
     ]
    ]
   }
  },
  {
   "type": "Feature",
   "properties": {
    "nr": "59",
    "name": "Graz – A9 – Marburg",
    "bezugshoehe": 1600
   },
   "geometry": {
    "type": "LineString",
    "coordinates": [
     [
      15.44,
      46.9916
     ],
     [
      15.4439,
      46.9646
     ],
     [
      15.4756,
      46.9159
     ],
     [
      15.4756,
      46.8834
     ],
     [
      15.5549,
      46.8292
     ],
     [
      15.5549,
      46.7913
     ],
     [
      15.5866,
      46.7696
     ],
     [
      15.5945,
      46.7533
     ],
     [
      15.6263,
      46.7424
     ],
     [
      15.65,
      46.7207
     ],
     [
      15.6421,
      46.7044
     ],
     [
      15.65,
      46.6664
     ],
     [
      15.6421,
      46.6609
     ],
     [
      15.6579,
      46.6337
     ],
     [
      15.6579,
      46.6119
     ],
     [
      15.6896,
      46.5847
     ],
     [
      15.6896,
      46.552
     ],
     [
      15.6975,
      46.5466
     ],
     [
      15.6975,
      46.5247
     ],
     [
      15.6737,
      46.5084
     ],
     [
      15.6855,
      46.4784
     ]
    ]
   }
  },
  {
   "type": "Feature",
   "properties": {
    "nr": "60",
    "name": "Salzburg – Golling – Lammertal – Radstadt – Radstädter Tauern – Mauterndorf",
    "bezugshoehe": 6800
   },
   "geometry": {
    "type": "LineString",
    "coordinates": [
     [
      13.0,
      47.7956
     ],
     [
      13.004,
      47.7797
     ],
     [
      13.0912,
      47.7211
     ],
     [
      13.0992,
      47.6945
     ],
     [
      13.1309,
      47.6572
     ],
     [
      13.131,
      47.6253
     ],
     [
      13.1628,
      47.5933
     ],
     [
      13.2102,
      47.5933
     ],
     [
      13.234,
      47.5826
     ],
     [
      13.2656,
      47.5825
     ],
     [
      13.2972,
      47.5985
     ],
     [
      13.3526,
      47.5612
     ],
     [
      13.3843,
      47.5665
     ],
     [
      13.408,
      47.5504
     ],
     [
      13.4239,
      47.5344
     ],
     [
      13.4239,
      47.5131
     ],
     [
      13.3924,
      47.4917
     ],
     [
      13.3924,
      47.481
     ],
     [
      13.353,
      47.4329
     ],
     [
      13.3846,
      47.4168
     ],
     [
      13.4084,
      47.3901
     ],
     [
      13.4638,
      47.3847
     ],
     [
      13.4796,
      47.3739
     ],
     [
      13.5034,
      47.3418
     ],
     [
      13.5036,
      47.2774
     ],
     [
      13.5194,
      47.2774
     ],
     [
      13.5669,
      47.2451
     ],
     [
      13.5828,
      47.2021
     ],
     [
      13.6462,
      47.1644
     ],
     [
      13.6462,
      47.1537
     ],
     [
      13.6976,
      47.1321
     ]
    ]
   }
  },
  {
   "type": "Feature",
   "properties": {
    "nr": "62",
    "name": "Mauterndorf – Katschberg – Spittal – Drautal – Lienz",
    "bezugshoehe": 5900
   },
   "geometry": {
    "type": "LineString",
    "coordinates": [
     [
      13.6976,
      47.1321
     ],
     [
      13.6858,
      47.1213
     ],
     [
      13.6937,
      47.1052
     ],
     [
      13.6858,
      47.0944
     ],
     [
      13.6384,
      47.0944
     ],
     [
      13.6147,
      47.0783
     ],
     [
      13.6068,
      47.019
     ],
     [
      13.6227,
      46.9704
     ],
     [
      13.6069,
      46.9433
     ],
     [
      13.5516,
      46.9163
     ],
     [
      13.5121,
      46.8839
     ],
     [
      13.4805,
      46.8027
     ],
     [
      13.4252,
      46.8298
     ],
     [
      13.3619,
      46.8299
     ],
     [
      13.3462,
      46.7865
     ],
     [
      13.3067,
      46.7595
     ],
     [
      13.1723,
      46.7542
     ],
     [
      13.0775,
      46.738
     ],
     [
      12.9669,
      46.7489
     ],
     [
      12.9115,
      46.7707
     ],
     [
      12.876,
      46.7978
     ]
    ]
   }
  },
  {
   "type": "Feature",
   "properties": {
    "nr": "63",
    "name": "Klagenfurt – A2 – Tarvis – Kanaltal – Udine",
    "bezugshoehe": 4000
   },
   "geometry": {
    "type": "LineString",
    "coordinates": [
     [
      14.335,
      46.642
     ],
     [
      14.2558,
      46.6502
     ],
     [
      14.2321,
      46.6339
     ],
     [
      14.2004,
      46.6284
     ],
     [
      14.1134,
      46.6394
     ],
     [
      14.058,
      46.6231
     ],
     [
      13.9077,
      46.6232
     ],
     [
      13.8286,
      46.5688
     ],
     [
      13.7891,
      46.5634
     ],
     [
      13.6942,
      46.5689
     ],
     [
      13.6704,
      46.5416
     ],
     [
      13.623,
      46.5308
     ],
     [
      13.5914,
      46.509
     ],
     [
      13.5123,
      46.5091
     ],
     [
      13.5044,
      46.5036
     ],
     [
      13.4807,
      46.5091
     ],
     [
      13.3621,
      46.5037
     ],
     [
      13.3384,
      46.5147
     ],
     [
      13.3226,
      46.5092
     ],
     [
      13.291,
      46.482
     ],
     [
      13.3147,
      46.4328
     ],
     [
      13.3068,
      46.4055
     ],
     [
      13.2594,
      46.3947
     ],
     [
      13.1488,
      46.3948
     ],
     [
      13.0856,
      46.373
     ],
     [
      13.0619,
      46.3511
     ],
     [
      13.0698,
      46.3402
     ],
     [
      13.0619,
      46.2854
     ],
     [
      13.0935,
      46.2635
     ],
     [
      13.0935,
      46.2087
     ],
     [
      13.1488,
      46.1702
     ],
     [
      13.1488,
      46.1592
     ],
     [
      13.1961,
      46.1207
     ],
     [
      13.1882,
      46.0355
     ]
    ]
   }
  },
  {
   "type": "Feature",
   "properties": {
    "nr": "65",
    "name": "Salzburg – Wolfgangsee – Bad Ischl – Pötschenhöhe – Aigen",
    "bezugshoehe": 4200
   },
   "geometry": {
    "type": "LineString",
    "coordinates": [
     [
      13.0,
      47.7956
     ],
     [
      13.0197,
      47.8062
     ],
     [
      13.0435,
      47.8062
     ],
     [
      13.1304,
      47.8273
     ],
     [
      13.1462,
      47.822
     ],
     [
      13.2174,
      47.822
     ],
     [
      13.2886,
      47.7954
     ],
     [
      13.3123,
      47.8007
     ],
     [
      13.4154,
      47.7262
     ],
     [
      13.455,
      47.7262
     ],
     [
      13.5263,
      47.6783
     ],
     [
      13.5975,
      47.6783
     ],
     [
      13.6054,
      47.6729
     ],
     [
      13.6133,
      47.6783
     ],
     [
      13.6054,
      47.6676
     ],
     [
      13.6134,
      47.641
     ],
     [
      13.661,
      47.6143
     ],
     [
      13.6768,
      47.625
     ],
     [
      13.7321,
      47.6303
     ],
     [
      13.8114,
      47.5769
     ],
     [
      13.8352,
      47.5769
     ],
     [
      13.8668,
      47.5662
     ],
     [
      13.9143,
      47.5662
     ],
     [
      13.9302,
      47.5555
     ],
     [
      14.0014,
      47.5555
     ],
     [
      14.0648,
      47.5234
     ],
     [
      14.1044,
      47.5234
     ],
     [
      14.1202,
      47.5341
     ],
     [
      14.136,
      47.5395
     ],
     [
      14.136,
      47.5341
     ]
    ]
   }
  },
  {
   "type": "Feature",
   "properties": {
    "nr": "70",
    "name": "Linz – A1/A9 – Micheldorf",
    "bezugshoehe": 2600
   },
   "geometry": {
    "type": "LineString",
    "coordinates": [
     [
      14.1892,
      48.2391
     ],
     [
      14.1894,
      48.197
     ],
     [
      14.1736,
      48.1759
     ],
     [
      14.0394,
      48.0704
     ],
     [
      14.0395,
      48.0546
     ],
     [
      14.0872,
      47.9859
     ],
     [
      14.0873,
      47.97
     ],
     [
      14.0952,
      47.9647
     ],
     [
      14.1031,
      47.97
     ],
     [
      14.0952,
      47.9647
     ],
     [
      14.0954,
      47.8959
     ],
     [
      14.1232,
      47.8747
     ]
    ]
   }
  },
  {
   "type": "Feature",
   "properties": {
    "nr": "71",
    "name": "Micheldorf – A9 – Pyhrnpass – Liezen – Aigen",
    "bezugshoehe": 4200
   },
   "geometry": {
    "type": "LineString",
    "coordinates": [
     [
      14.1232,
      47.8747
     ],
     [
      14.1193,
      47.8694
     ],
     [
      14.1351,
      47.8694
     ],
     [
      14.159,
      47.8428
     ],
     [
      14.1511,
      47.8269
     ],
     [
      14.1591,
      47.7844
     ],
     [
      14.1829,
      47.7685
     ],
     [
      14.2146,
      47.7632
     ],
     [
      14.2622,
      47.7419
     ],
     [
      14.3018,
      47.7419
     ],
     [
      14.3574,
      47.694
     ],
     [
      14.3416,
      47.678
     ],
     [
      14.3337,
      47.6461
     ],
     [
      14.2942,
      47.6248
     ],
     [
      14.2784,
      47.5928
     ],
     [
      14.2389,
      47.5715
     ],
     [
      14.1518,
      47.5501
     ],
     [
      14.136,
      47.5341
     ]
    ]
   }
  },
  {
   "type": "Feature",
   "properties": {
    "nr": "75",
    "name": "Klagenfurt – S37 – Friesach – Neumarkter Sattel – Murtal – Zeltweg",
    "bezugshoehe": 4100
   },
   "geometry": {
    "type": "LineString",
    "coordinates": [
     [
      14.335,
      46.642
     ],
     [
      14.3112,
      46.6502
     ],
     [
      14.3112,
      46.6665
     ],
     [
      14.3745,
      46.7208
     ],
     [
      14.3824,
      46.7913
     ],
     [
      14.4299,
      46.8184
     ],
     [
      14.4299,
      46.9321
     ],
     [
      14.3902,
      46.9754
     ],
     [
      14.3902,
      47.0078
     ],
     [
      14.4139,
      47.024
     ],
     [
      14.4297,
      47.0671
     ],
     [
      14.3743,
      47.0995
     ],
     [
      14.3663,
      47.1318
     ],
     [
      14.4217,
      47.1695
     ],
     [
      14.5326,
      47.1695
     ],
     [
      14.5563,
      47.1856
     ],
     [
      14.588,
      47.191
     ],
     [
      14.6276,
      47.1749
     ],
     [
      14.6593,
      47.1748
     ],
     [
      14.691,
      47.1856
     ],
     [
      14.7305,
      47.2125
     ],
     [
      14.7464,
      47.1991
     ]
    ]
   }
  },
  {
   "type": "Feature",
   "properties": {
    "nr": "76",
    "name": "Klagenfurt – Bad Eisenkappel – Seebergsattel – Kranj – Laibach",
    "bezugshoehe": 4800
   },
   "geometry": {
    "type": "LineString",
    "coordinates": [
     [
      14.335,
      46.642
     ],
     [
      14.43,
      46.6447
     ],
     [
      14.4933,
      46.5957
     ],
     [
      14.4933,
      46.5684
     ],
     [
      14.5091,
      46.5521
     ],
     [
      14.5328,
      46.5412
     ],
     [
      14.5645,
      46.5412
     ],
     [
      14.5803,
      46.5302
     ],
     [
      14.5724,
      46.5084
     ],
     [
      14.5882,
      46.4921
     ],
     [
      14.5882,
      46.4593
     ],
     [
      14.5328,
      46.4211
     ],
     [
      14.5327,
      46.3555
     ],
     [
      14.4931,
      46.3281
     ],
     [
      14.5011,
      46.3117
     ],
     [
      14.4852,
      46.3008
     ],
     [
      14.4377,
      46.3008
     ],
     [
      14.3823,
      46.246
     ],
     [
      14.4377,
      46.235
     ],
     [
      14.4693,
      46.2185
     ]
    ]
   }
  },
  {
   "type": "Feature",
   "properties": {
    "nr": "81",
    "name": "Krems – S33 – St. Pölten – Türnitz – Annaberg – Mariazell",
    "bezugshoehe": 4100
   },
   "geometry": {
    "type": "LineString",
    "coordinates": [
     [
      15.6393,
      48.4444
     ],
     [
      15.6235,
      48.4391
     ],
     [
      15.6236,
      48.4077
     ],
     [
      15.6554,
      48.3867
     ],
     [
      15.6951,
      48.3815
     ],
     [
      15.719,
      48.3658
     ],
     [
      15.7192,
      48.3185
     ],
     [
      15.6561,
      48.1869
     ],
     [
      15.6403,
      48.1764
     ],
     [
      15.6165,
      48.1764
     ],
     [
      15.6087,
      48.1078
     ],
     [
      15.5929,
      48.0867
     ],
     [
      15.593,
      48.0708
     ],
     [
      15.6089,
      48.055
     ],
     [
      15.601,
      48.0233
     ],
     [
      15.5694,
      48.0021
     ],
     [
      15.5694,
      47.9756
     ],
     [
      15.4348,
      47.8908
     ],
     [
      15.403,
      47.8908
     ],
     [
      15.3793,
      47.8749
     ],
     [
      15.3317,
      47.8748
     ],
     [
      15.308,
      47.8589
     ],
     [
      15.308,
      47.8324
     ],
     [
      15.2922,
      47.8058
     ],
     [
      15.3041,
      47.7925
     ]
    ]
   }
  },
  {
   "type": "Feature",
   "properties": {
    "nr": "82",
    "name": "Mariazell – Seeberg – Aflenz – Kapfenberg",
    "bezugshoehe": 4700
   },
   "geometry": {
    "type": "LineString",
    "coordinates": [
     [
      15.3041,
      47.7925
     ],
     [
      15.3162,
      47.7421
     ],
     [
      15.332,
      47.7314
     ],
     [
      15.3242,
      47.6729
     ],
     [
      15.2846,
      47.6462
     ],
     [
      15.2847,
      47.6302
     ],
     [
      15.2688,
      47.6195
     ],
     [
      15.3165,
      47.5662
     ],
     [
      15.2927,
      47.5502
     ],
     [
      15.261,
      47.5502
     ],
     [
      15.2293,
      47.5288
     ],
     [
      15.2214,
      47.5128
     ],
     [
      15.2294,
      47.4967
     ],
     [
      15.2532,
      47.4807
     ],
     [
      15.2532,
      47.4646
     ],
     [
      15.277,
      47.4486
     ],
     [
      15.3365,
      47.4566
     ]
    ]
   }
  },
  {
   "type": "Feature",
   "properties": {
    "nr": "83",
    "name": "Graz – Murtal – Kapfenberg",
    "bezugshoehe": 2800
   },
   "geometry": {
    "type": "LineString",
    "coordinates": [
     [
      15.44,
      46.9916
     ],
     [
      15.4042,
      47.0887
     ],
     [
      15.3249,
      47.1534
     ],
     [
      15.3248,
      47.2824
     ],
     [
      15.3565,
      47.3039
     ],
     [
      15.3644,
      47.3254
     ],
     [
      15.3406,
      47.3576
     ],
     [
      15.3089,
      47.3736
     ],
     [
      15.3088,
      47.3897
     ],
     [
      15.2692,
      47.4111
     ],
     [
      15.2691,
      47.4272
     ],
     [
      15.3246,
      47.4593
     ],
     [
      15.3365,
      47.4566
     ]
    ]
   }
  },
  {
   "type": "Feature",
   "properties": {
    "nr": "91",
    "name": "Wiener Neustadt – Fertőszentmiklós",
    "bezugshoehe": 1200
   },
   "geometry": {
    "type": "LineString",
    "coordinates": [
     [
      16.2563,
      47.8357
     ],
     [
      16.2682,
      47.8436
     ],
     [
      16.3239,
      47.7799
     ],
     [
      16.3637,
      47.7534
     ],
     [
      16.4034,
      47.7428
     ],
     [
      16.4352,
      47.7162
     ],
     [
      16.5146,
      47.695
     ],
     [
      16.61,
      47.6897
     ],
     [
      16.6338,
      47.6578
     ],
     [
      16.6815,
      47.6259
     ],
     [
      16.769,
      47.5993
     ],
     [
      16.8325,
      47.5993
     ],
     [
      16.8484,
      47.5887
     ],
     [
      16.8405,
      47.586
     ]
    ]
   }
  },
  {
   "type": "Feature",
   "properties": {
    "nr": "92",
    "name": "Dobersberg – Krems",
    "bezugshoehe": 2300
   },
   "geometry": {
    "type": "LineString",
    "coordinates": [
     [
      15.2959,
      48.921
     ],
     [
      15.3119,
      48.9132
     ],
     [
      15.2884,
      48.8354
     ],
     [
      15.3045,
      48.799
     ],
     [
      15.3204,
      48.7886
     ],
     [
      15.4475,
      48.7627
     ],
     [
      15.5588,
      48.7159
     ],
     [
      15.5827,
      48.7003
     ],
     [
      15.5828,
      48.6743
     ],
     [
      15.6545,
      48.6274
     ],
     [
      15.6625,
      48.6013
     ],
     [
      15.6547,
      48.5752
     ],
     [
      15.6946,
      48.5334
     ],
     [
      15.6948,
      48.4811
     ],
     [
      15.6631,
      48.4706
     ],
     [
      15.6314,
      48.4496
     ],
     [
      15.6393,
      48.4444
     ]
    ]
   }
  },
  {
   "type": "Feature",
   "properties": {
    "nr": "93",
    "name": "St. Pölten – Wiener Neustadt",
    "bezugshoehe": 2300
   },
   "geometry": {
    "type": "LineString",
    "coordinates": [
     [
      15.62,
      48.2001
     ],
     [
      15.6087,
      48.1078
     ],
     [
      15.5929,
      48.0867
     ],
     [
      15.593,
      48.0708
     ],
     [
      15.6168,
      48.055
     ],
     [
      15.6645,
      48.0444
     ],
     [
      15.7279,
      48.0498
     ],
     [
      15.7835,
      48.034
     ],
     [
      15.7914,
      48.0392
     ],
     [
      15.8629,
      48.0393
     ],
     [
      15.8788,
      48.0287
     ],
     [
      15.9502,
      48.0288
     ],
     [
      15.9661,
      48.0182
     ],
     [
      16.0058,
      48.0183
     ],
     [
      16.0217,
      48.0077
     ],
     [
      16.0217,
      47.9971
     ],
     [
      16.0376,
      47.9865
     ],
     [
      16.0535,
      47.9866
     ],
     [
      16.1171,
      47.9443
     ],
     [
      16.1966,
      47.9284
     ],
     [
      16.2443,
      47.8967
     ],
     [
      16.2761,
      47.8702
     ],
     [
      16.2761,
      47.8543
     ],
     [
      16.2563,
      47.8357
     ]
    ]
   }
  }
 ]
}